{"version": 0.6, "generator": "Overpass API 0.7.62.1 084b4234", "osm3s": {"timestamp_osm_base": "2024-09-13T09:51:35Z", "copyright": "The data included in this document is from www.openstreetmap.org. The data is made available under ODbL."}, "elements": [{"type": "node", "id": 1107464790, "lat": 1.3138534, "lon": 103.9889459, "tags": {"amenity": "cafe", "name": "Killiney Kopitiam", "name:en": "Killiney Kopitiam"}}, {"type": "node", "id": 1107465018, "lat": 1.314404, "lon": 103.988834, "tags": {"amenity": "cafe", "name": "Temptations Food & Snacks", "name:en": "Temptations Food & Snacks"}}, {"type": "node", "id": 1313941260, "lat": 1.3056033, "lon": 103.9317231, "tags": {"addr:city": "Singapore", "addr:country": "SG", "addr:housenumber": "1206A", "addr:postcode": "449891", "addr:street": "East Coast Parkway", "amenity": "cafe", "email": "cr@singaporewakepark.com", "internet_access": "wlan", "name": "Coastal Rhythm", "opening_hours": "Mo-Fr 10:00-22:00; Sa-Su 09:00-22:00", "outdoor_seating": "yes", "phone": "+65 66363705", "website": "http://www.facebook.com/CoastalRhythm"}}, {"type": "node", "id": 3109381268, "lat": 1.3129222, "lon": 103.9254991, "tags": {"addr:city": "Singapore", "addr:housenumber": "3", "addr:postcode": "457602", "addr:street": "Jalan Jamal", "amenity": "cafe", "brand": "Starbucks", "brand:wikidata": "Q37158", "brand:wikipedia": "en:Starbucks", "cuisine": "coffee_shop", "name": "Starbucks", "official_name": "Starbucks Coffee", "takeaway": "yes"}}, {"type": "node", "id": 3876294284, "lat": 1.3130468, "lon": 103.9233966, "tags": {"amenity": "cafe", "name": "Craftsmen Coffee", "wheelchair": "yes"}}, {"type": "node", "id": 3876295088, "lat": 1.3209325, "lon": 103.9243106, "tags": {"addr:city": "Singapore", "addr:housenumber": "1", "addr:postcode": "455700", "addr:street": "Swan Lake Avenue", "amenity": "cafe", "cuisine": "french;pizza;ice_cream", "name": "baker & cook", "opening_hours": "Mo-Su 07:30-22:00", "website": "https://www.bakerandcook.biz/"}}, {"type": "node", "id": 3890062578, "lat": 1.3142525, "lon": 103.9195276, "tags": {"addr:city": "Singapore", "addr:housenumber": "113", "addr:postcode": "458230", "addr:street": "Frankel Avenue", "amenity": "cafe", "cuisine": "coffee_shop", "name": "Dutch Colony Coffee Co.", "source": "Kaart Ground Survey 2017"}}, {"type": "node", "id": 4274976773, "lat": 1.3011048, "lon": 103.9129616, "tags": {"addr:city": "Singapore", "addr:country": "SG", "addr:housenumber": "1000", "addr:postcode": "449876", "addr:street": "East Coast Parkway", "addr:unit": "#01-01", "amenity": "cafe", "brand": "The Coffee Bean & Tea Leaf", "brand:wikidata": "Q1141384", "brand:wikipedia": "en:The Coffee Bean & Tea Leaf", "cuisine": "coffee_shop", "email": "mcv@coffeebean.com.sg", "name": "The Coffee Bean & Tea Leaf", "opening_hours": "Su-Th 07:30-23:30;Fr,Sa 07:30-25:00", "phone": "64444325", "takeaway": "yes", "website": "https://www.coffeebean.com.sg/", "wheelchair": "yes"}}, {"type": "node", "id": 4682734908, "lat": 1.308821, "lon": 103.9111615, "tags": {"addr:city": "Singapore", "addr:street": "East Coast Road", "amenity": "cafe", "name": "Penny University", "source": "Kaart Ground Survey 2017", "wheelchair": "limited"}}, {"type": "node", "id": 4682762221, "lat": 1.3133636, "lon": 103.9276038, "tags": {"addr:street": "Upper East Coast Road", "amenity": "cafe", "name": "Udders & Kook", "source": "Kaart Ground Survey 2017"}}, {"type": "node", "id": 4682762223, "lat": 1.3133841, "lon": 103.9277158, "tags": {"addr:street": "Upper East Coast Road", "amenity": "cafe", "name": "Perle Noire", "source": "Kaart Ground Survey 2017"}}, {"type": "node", "id": 4683825541, "lat": 1.3086334, "lon": 103.9114305, "tags": {"addr:street": "East Coast Road", "amenity": "cafe", "name": "Lelepot", "source": "Kaart Ground Survey 2017", "wheelchair": "limited"}}, {"type": "node", "id": 4683825542, "lat": 1.308611, "lon": 103.9113547, "tags": {"addr:street": "East Coast Road", "amenity": "cafe", "name": "Madnest", "source": "Kaart Ground Survey 2017", "wheelchair": "limited"}}, {"type": "node", "id": 4687316800, "lat": 1.3142004, "lon": 103.9195506, "tags": {"addr:street": "Frankel Avenue", "amenity": "cafe", "name": "Cedele", "source": "Kaart Ground Survey 2017"}}, {"type": "node", "id": 4689127008, "lat": 1.3186476, "lon": 103.9095263, "tags": {"addr:city": "Singapore", "addr:country": "SG", "addr:housenumber": "351", "addr:postcode": "419818", "addr:street": "Changi Road", "amenity": "cafe", "email": "enquiries@ffl.com.sg", "name": "Fresh Fruits Lab", "name:en": "Fresh Fruits Lab", "opening_hours": "Su 10:00-22:00; Tu-Th 11:00-22:00; Fr 11:00-22:00; Sa 10:00-23:00", "phone": "+65 66776741", "source": "Kaart Ground Survey 2017", "website": "https://www.ffl.com.sg/"}}, {"type": "node", "id": 4701761355, "lat": 1.3121146, "lon": 103.9111364, "tags": {"addr:street": "Telok Kurau Court", "amenity": "cafe", "name": "JC Don Cafe & Bar", "source": "Kaart Ground Survey 2017", "wheelchair": "no"}}, {"type": "node", "id": 4702450064, "lat": 1.3094425, "lon": 103.9022742, "tags": {"addr:street": "Joo Chiat Road", "amenity": "cafe", "check_date": "2024-04-21", "name": "Hello Arigato", "source": "Kaart Ground Survey 2017"}}, {"type": "node", "id": 4702450066, "lat": 1.3093344, "lon": 103.9023602, "tags": {"addr:street": "Joo Chiat Road", "amenity": "cafe", "check_date": "2022-12-03", "name": "Dickson Nasi Lemak", "office": "medical", "source": "Kaart Ground Survey 2017"}}, {"type": "node", "id": 4702450068, "lat": 1.3091015, "lon": 103.9023871, "tags": {"addr:street": "Joo Chiat Road", "amenity": "cafe", "changing_table": "no", "cuisine": "coffee_shop", "level": "0", "name": "Kings Cart Coffee Factory", "opening_hours": "Mo-Su 09:00-18:00", "outdoor_seating": "yes", "smoking": "no", "takeaway": "yes", "toilets": "yes", "toilets:access": "customers", "toilets:disposal": "flush", "toilets:position": "seated", "toilets:wheelchair": "no", "wheelchair": "no"}}, {"type": "node", "id": 4702450069, "lat": 1.3090259, "lon": 103.902448, "tags": {"addr:street": "Joo Chiat Road", "amenity": "cafe", "name": "The Cider Pit", "source": "Kaart Ground Survey 2017"}}, {"type": "node", "id": 4702450076, "lat": 1.3084882, "lon": 103.9029579, "tags": {"addr:street": "Joo Chiat Road", "amenity": "cafe", "name": "Mellvin Coffee Shop", "source": "Kaart Ground Survey 2017"}}, {"type": "node", "id": 4702487306, "lat": 1.3053163, "lon": 103.9037727, "tags": {"addr:street": "East Coast Road", "amenity": "cafe", "check_date": "2022-12-03", "name": "Micro Bread & Co.", "old_name": "Katong Bakery & Confectionary Co", "wheelchair": "yes"}}, {"type": "node", "id": 4703848357, "lat": 1.3096307, "lon": 103.9023246, "tags": {"addr:housenumber": "301", "addr:street": "Joo Chiat Road", "amenity": "cafe", "check_date": "2024-04-21", "name": "Olsen Bakehouse"}}, {"type": "node", "id": 4703848361, "lat": 1.3093959, "lon": 103.9024903, "tags": {"addr:street": "Joo Chiat Road", "amenity": "cafe", "name": "Petit Pain", "source": "Kaart Ground Survey 2017"}}, {"type": "node", "id": 4703917514, "lat": 1.3041777, "lon": 103.9024992, "tags": {"addr:street": "East Coast Road", "amenity": "cafe", "name": "MooLooLaBar", "source": "Kaart Ground Survey 2017"}}, {"type": "node", "id": 4729472896, "lat": 1.3090967, "lon": 103.9119992, "tags": {"addr:housenumber": "421", "addr:postcode": "429008", "addr:street": "East Coast Road", "amenity": "cafe", "name": "Oh Deli", "name:en": "Oh Deli", "website": "https://www.ohdeli.com.sg/index.html", "wheelchair": "limited"}}, {"type": "node", "id": 5414528607, "lat": 1.3078254, "lon": 103.9075092, "tags": {"amenity": "cafe", "changing_table": "no", "cuisine": "coffee_shop", "level": "0", "name": "Neptune", "outdoor_seating": "yes", "smoking": "no", "takeaway": "yes", "toilets": "yes", "toilets:access": "customers", "toilets:disposal": "flush", "toilets:position": "seated", "toilets:wheelchair": "yes"}}, {"type": "node", "id": 5414528615, "lat": 1.3072261, "lon": 103.907068, "tags": {"addr:housenumber": "204", "addr:postcode": "428903", "addr:street": "East Coast Road", "amenity": "cafe", "check_date": "2023-06-18", "contact:facebook": "https://www.facebook.com/chinmeechin.sg", "contact:instagram": "https://www.instagram.com/chinmeechin.sg", "cuisine": "coffee_shop", "delivery": "yes", "email": "hello@chinmeechin.sg", "name": "Chin Mee Chin Confectionery", "opening_hours": "Tu-Su 08:00-16:00", "shop": "pastry", "short_name": "CMC", "website": "https://www.chinmeechin.sg/", "wheelchair": "limited", "wikipedia": "en:Chin Mee Chin Confectionery"}}, {"type": "node", "id": 5414652954, "lat": 1.3067005, "lon": 103.9059073, "tags": {"amenity": "cafe", "name": "Cook Book"}}, {"type": "node", "id": 5855474485, "lat": 1.3045356, "lon": 103.9024959, "tags": {"amenity": "cafe", "name": "Beriwell", "opening_hours": "Mo-Su 09:00-23:00"}}, {"type": "node", "id": 5872497585, "lat": 1.305368, "lon": 103.9038974, "tags": {"amenity": "cafe", "name": "Harvest", "opening_hours": "Mo-Su 11:30-21:30", "wheelchair": "limited"}}, {"type": "node", "id": 6510909286, "lat": 1.3056739, "lon": 103.9042862, "tags": {"amenity": "cafe", "name": "An A\u00e7ai Affair", "opening_hours": "Mo-Th 12:00-22:00; Fr 12:00-23:30; Sa 10:00-23:30; Su 10:00-22:00", "wheelchair": "limited"}}, {"type": "node", "id": 6888275585, "lat": 1.3198057, "lon": 103.90314, "tags": {"amenity": "cafe", "brand": "Gong Cha", "brand:wikidata": "Q5581670", "brand:zh": "\u8ca2\u8336", "cuisine": "bubble_tea", "int_name": "Gong Cha", "level": "0", "name": "Gong Cha", "name:zh": "\u8ca2\u8336", "takeaway": "only"}}, {"type": "node", "id": 6975908102, "lat": 1.3013829, "lon": 103.905565, "tags": {"addr:city": "Singapore", "addr:housenumber": "#B1-83H", "addr:postcode": "449269", "addr:street": "80 Marine Parade Road, Parkway Parade", "amenity": "cafe", "brand": "The Coffee Bean & Tea Leaf", "brand:wikidata": "Q1141384", "brand:wikipedia": "en:The Coffee Bean & Tea Leaf", "cuisine": "coffee_shop", "level": "2", "name": "The Coffee Bean & Tea Leaf", "takeaway": "yes", "wheelchair": "yes"}}, {"type": "node", "id": 6975908105, "lat": 1.3014767, "lon": 103.9055982, "tags": {"addr:city": "Singapore", "addr:housenumber": "#01-14B", "addr:postcode": "449269", "addr:street": "80 Marine Parade Rd, Parkway Parade", "amenity": "cafe", "level": "2", "name": "Ya Kun Family Cafe", "wheelchair": "yes"}}, {"type": "node", "id": 6975908599, "lat": 1.3011719, "lon": 103.9051965, "tags": {"addr:city": "Singapore", "addr:housenumber": "#B1-112/146", "addr:postcode": "449269", "addr:street": "80 Marine Parade Road, Parkway Parade", "amenity": "cafe", "level": "2", "name": "Toast Box"}}, {"type": "node", "id": 6975908688, "lat": 1.3020216, "lon": 103.9052702, "tags": {"addr:city": "Singapore", "addr:housenumber": "80", "addr:postcode": "449269", "addr:street": "Marine Parade Road #01-10A/B Parkway Parade", "amenity": "cafe", "brand": "Starbucks", "brand:wikidata": "Q37158", "brand:wikipedia": "en:Starbucks", "cuisine": "coffee_shop", "level": "2", "name": "Starbucks", "official_name": "Starbucks Coffee", "takeaway": "yes", "wheelchair": "yes"}}, {"type": "node", "id": 6976045893, "lat": 1.3019847, "lon": 103.905029}, {"type": "node", "id": 6976085385, "lat": 1.3017643, "lon": 103.9051291}, {"type": "node", "id": 6976085386, "lat": 1.3016058, "lon": 103.9051083}, {"type": "node", "id": 6976085485, "lat": 1.3017491, "lon": 103.9052096}, {"type": "node", "id": 6976336795, "lat": 1.3010241, "lon": 103.9048516}, {"type": "node", "id": 6976336796, "lat": 1.301097, "lon": 103.9047775}, {"type": "node", "id": 6976343099, "lat": 1.3011253, "lon": 103.9047584}, {"type": "node", "id": 6976343197, "lat": 1.3010119, "lon": 103.9048326}, {"type": "node", "id": 6976343290, "lat": 1.3010687, "lon": 103.9048627}, {"type": "node", "id": 6976343291, "lat": 1.301124, "lon": 103.9048247}, {"type": "node", "id": 6976343388, "lat": 1.3010581, "lon": 103.9048615}, {"type": "node", "id": 6976343504, "lat": 1.3010436, "lon": 103.904839}, {"type": "node", "id": 6976343505, "lat": 1.3011246, "lon": 103.9048185}, {"type": "node", "id": 6976881386, "lat": 1.3013829, "lon": 103.905565, "tags": {"addr:city": "Singapore", "addr:housenumber": "#B1-83H", "addr:postcode": "449269", "addr:street": "80 Marine Parade Road, Parkway Parade", "amenity": "cafe", "brand": "The Coffee Bean & Tea Leaf", "brand:wikidata": "Q1141384", "brand:wikipedia": "en:The Coffee Bean & Tea Leaf", "cuisine": "coffee_shop", "level": "3", "name": "The Coffee Bean & Tea Leaf", "takeaway": "yes", "wheelchair": "yes"}}, {"type": "node", "id": 6976881485, "lat": 1.3014767, "lon": 103.9055982, "tags": {"addr:city": "Singapore", "addr:housenumber": "#01-14B", "addr:postcode": "449269", "addr:street": "80 Marine Parade Rd, Parkway Parade", "amenity": "cafe", "level": "3", "name": "Ya Kun Family Cafe", "wheelchair": "yes"}}, {"type": "node", "id": 6976881586, "lat": 1.3011719, "lon": 103.9051965, "tags": {"addr:city": "Singapore", "addr:housenumber": "#B1-112/146", "addr:postcode": "449269", "addr:street": "80 Marine Parade Road, Parkway Parade", "amenity": "cafe", "level": "3", "name": "Toast Box"}}, {"type": "node", "id": 6976881688, "lat": 1.3020216, "lon": 103.9052702, "tags": {"addr:city": "Singapore", "addr:housenumber": "80", "addr:postcode": "449269", "addr:street": "Marine Parade Road #01-10A/B Parkway Parade", "amenity": "cafe", "brand": "Starbucks", "brand:wikidata": "Q37158", "brand:wikipedia": "en:Starbucks", "cuisine": "coffee_shop", "level": "3", "name": "Starbucks", "official_name": "Starbucks Coffee", "takeaway": "yes", "wheelchair": "yes"}}, {"type": "node", "id": 6978635810, "lat": 1.3016065, "lon": 103.9053948}, {"type": "node", "id": 6978635811, "lat": 1.3015513, "lon": 103.9053801}, {"type": "node", "id": 6978635812, "lat": 1.301674, "lon": 103.9052066}, {"type": "node", "id": 6978635813, "lat": 1.3016261, "lon": 103.905184}, {"type": "node", "id": 6978635814, "lat": 1.3016472, "lon": 103.9051698}, {"type": "node", "id": 6978635815, "lat": 1.3016164, "lon": 103.9051019}, {"type": "node", "id": 6978635833, "lat": 1.3019498, "lon": 103.9051398}, {"type": "node", "id": 6978635836, "lat": 1.3020198, "lon": 103.9051525}, {"type": "node", "id": 6978637804, "lat": 1.3015678, "lon": 103.9054697}, {"type": "node", "id": 6978637806, "lat": 1.3015425, "lon": 103.9054327}, {"type": "node", "id": 6978637828, "lat": 1.3019716, "lon": 103.9050266}, {"type": "node", "id": 6978637829, "lat": 1.3020413, "lon": 103.9050403}, {"type": "node", "id": 6978637893, "lat": 1.301698, "lon": 103.9052446}, {"type": "node", "id": 6978637995, "lat": 1.301562, "lon": 103.9054912}, {"type": "node", "id": 6978637996, "lat": 1.3015207, "lon": 103.9054009}, {"type": "node", "id": 6978637997, "lat": 1.3016499, "lon": 103.9052218}, {"type": "node", "id": 6978638004, "lat": 1.3020404, "lon": 103.9050401}, {"type": "node", "id": 6978638185, "lat": 1.3015755, "lon": 103.9054158}, {"type": "node", "id": 6982001798, "lat": 1.3011312, "lon": 103.9047225}, {"type": "node", "id": 6982001908, "lat": 1.3010045, "lon": 103.9048373}, {"type": "node", "id": 6982001909, "lat": 1.3009923, "lon": 103.9048183}, {"type": "node", "id": 6982012829, "lat": 1.3017694, "lon": 103.9053386}, {"type": "node", "id": 6982012830, "lat": 1.301709, "lon": 103.9053797}, {"type": "node", "id": 6982021588, "lat": 1.3008498, "lon": 103.9058263}, {"type": "node", "id": 6982021623, "lat": 1.3017558, "lon": 103.9053336}, {"type": "node", "id": 6982021624, "lat": 1.3017464, "lon": 103.9053393}, {"type": "node", "id": 6982021625, "lat": 1.3017203, "lon": 103.9053273}, {"type": "node", "id": 6982021657, "lat": 1.3006898, "lon": 103.9058095}, {"type": "node", "id": 6982021658, "lat": 1.3006926, "lon": 103.9058201}, {"type": "node", "id": 6982021662, "lat": 1.3009986, "lon": 103.9057061}, {"type": "node", "id": 6982024599, "lat": 1.3016635, "lon": 103.9053122}, {"type": "node", "id": 6982024607, "lat": 1.3007794, "lon": 103.9058778}, {"type": "node", "id": 6982024608, "lat": 1.3008578, "lon": 103.9058536}, {"type": "node", "id": 6982024609, "lat": 1.300835, "lon": 103.9057722}, {"type": "node", "id": 6982024610, "lat": 1.3006897, "lon": 103.9058092}, {"type": "node", "id": 6982024614, "lat": 1.3009959, "lon": 103.9057232}, {"type": "node", "id": 6982024688, "lat": 1.3016954, "lon": 103.9052908}, {"type": "node", "id": 6982432906, "lat": 1.3009383, "lon": 103.9056666}, {"type": "node", "id": 6982432907, "lat": 1.3008439, "lon": 103.9056901}, {"type": "node", "id": 6982432908, "lat": 1.3009182, "lon": 103.9057775}, {"type": "node", "id": 6982432909, "lat": 1.3009034, "lon": 103.9057282}, {"type": "node", "id": 6982432910, "lat": 1.3008574, "lon": 103.90574}, {"type": "node", "id": 6982433011, "lat": 1.3009616, "lon": 103.9056509}, {"type": "node", "id": 6982511409, "lat": 1.3016145, "lon": 103.9054997}, {"type": "node", "id": 6982511412, "lat": 1.3016583, "lon": 103.9054699}, {"type": "node", "id": 7082575621, "lat": 1.3049908, "lon": 103.9295433, "tags": {"addr:city": "Singapore", "addr:country": "SG", "addr:housenumber": "1202", "addr:postcode": "449881", "addr:street": "East Coast Parkway", "addr:unit": "#01-01", "amenity": "cafe", "email": "enquiry@enakenak.sg", "name": "Enak Enak Hong Kong Teahouse", "opening_hours": "24/7", "phone": "68765911", "website": "https://www.enakenak.sg/"}}, {"type": "node", "id": 7082575998, "lat": 1.3041866, "lon": 103.9243314, "tags": {"addr:city": "Singapore", "addr:country": "SG", "addr:housenumber": "1110", "addr:postcode": "449880", "addr:street": "East Coast Parkway", "addr:unit": "#01-05/06/07", "amenity": "cafe", "email": "concierge@pscafe.com", "name": "PS. Cafe by the Sea", "opening_hours": "09:30-23:00", "phone": "67089288", "website": "https://www.pscafe.com/"}}, {"type": "node", "id": 7140334378, "lat": 1.298907, "lon": 103.9067174, "tags": {"addr:city": "Singapore", "addr:country": "SG", "addr:housenumber": "920", "addr:postcode": "449875", "addr:street": "East Coast Parkway", "addr:unit": "#01-17", "amenity": "cafe", "brand": "Starbucks", "brand:wikidata": "Q37158", "brand:wikipedia": "en:Starbucks", "cuisine": "coffee_shop", "email": "customer@starbucks.com.sg", "name": "Starbucks", "official_name": "Starbucks Coffee", "opening_hours": "Mo-Th,Su 07:30-23:00;Fr,Sa 07:30-24:00", "phone": "69101211", "takeaway": "yes", "website": "http://www.starbucks.com.sg/", "wheelchair": "yes"}}, {"type": "node", "id": 7140421893, "lat": 1.2996459, "lon": 103.9071006, "tags": {"addr:city": "Singapore", "addr:country": "SG", "addr:housenumber": "920", "addr:postcode": "449875", "addr:street": "East Coast Parkway", "addr:unit": "#01-09/10", "amenity": "cafe", "email": "bakeryandbar.stmarc@gmail.com", "name": "St. Marc", "opening_hours": "Tu-Fr 11:00-22:00;Sa,Su,Ph 09:00-22:00", "phone": "63421786", "shop": "bakery", "website": "http://saint-marc-sg.com/", "wheelchair": "yes"}}, {"type": "node", "id": 7302279097, "lat": 1.3093729, "lon": 103.9023127, "tags": {"addr:housenumber": "318", "addr:street": "Joo Chiat Road", "amenity": "cafe", "check_date": "2024-04-21", "level": "0", "name": "Breakfast at Fluffy's"}}, {"type": "node", "id": 7302314215, "lat": 1.2999711, "lon": 103.9075257, "tags": {"addr:city": "Singapore", "addr:country": "SG", "addr:housenumber": "920", "addr:postcode": "449875", "addr:street": "East Coast Parkway", "addr:unit": "#01-01/02", "alt_name": "Kebah Station", "amenity": "cafe", "email": "kebabstation@yahoo.com", "name": "Turkish Cafe", "phone": "+65 96978227", "website": "http://www.kebabstation.sg/", "wheelchair": "yes"}}, {"type": "node", "id": 7637579955, "lat": 1.3181093, "lon": 103.9068124, "tags": {"addr:city": "Singapore", "addr:country": "SG", "addr:housenumber": "285", "addr:postcode": "419764", "addr:street": "Changi Road", "amenity": "cafe", "name": "Hei Kim Cafe", "name:zh": "\u9ed1\u91d1", "opening_hours": "Mo-Tu 09:00-16:00; Th-Su 09:00-16:00", "phone": "+65 83681707", "website": "https://www.heikim.sg/"}}, {"type": "node", "id": 8496654296, "lat": 1.3197562, "lon": 103.9023701, "tags": {"amenity": "cafe", "cuisine": "bubble_tea", "name": "LiHO", "takeaway": "only"}}, {"type": "node", "id": 9063672917, "lat": 1.3027655, "lon": 103.9058512, "tags": {"addr:city": "Singapore", "addr:housenumber": "83", "addr:postcode": "440083", "addr:street": "Marine Parade Central", "amenity": "cafe", "cuisine": "bubble_tea", "internet_access": "no", "name": "Koi Cafe", "opening_hours": "Mo-Su 09:00-21:00", "outdoor_seating": "no", "phone": "6440 4869"}}, {"type": "node", "id": 9063672919, "lat": 1.301731, "lon": 103.9060537, "tags": {"addr:city": "Singapore", "addr:housenumber": "1", "addr:postcode": "449408", "addr:street": "Marine Parade Rd", "air_conditioning": "yes", "amenity": "cafe", "brand": "LiHO TEA", "cuisine": "bubble_tea", "internet_access": "yes", "internet_access:fee": "no", "name": "LiHO TEA", "opening_hours": "Mo-Su 11:00-22:00", "outdoor_seating": "no"}}, {"type": "node", "id": 9166226517, "lat": 1.3128196, "lon": 103.9247457, "tags": {"amenity": "cafe", "name": "La Fez Bakery and Cafe"}}, {"type": "node", "id": 9671017630, "lat": 1.3066884, "lon": 103.9046243, "tags": {"addr:housenumber": "465", "addr:street": "Joo Chiat Road", "amenity": "cafe", "name": "The communal place"}}, {"type": "node", "id": 9674875023, "lat": 1.3066838, "lon": 103.9046349, "tags": {"addr:housenumber": "465", "addr:street": "Joo Chiat Road", "amenity": "cafe", "name": "The Communal Place"}}, {"type": "node", "id": 9710736626, "lat": 1.3033615, "lon": 103.9030812, "tags": {"addr:unit": "11", "amenity": "cafe", "level": "0", "name": "Group Therapy Cafe"}}, {"type": "node", "id": 9710736628, "lat": 1.3034752, "lon": 103.9031223, "tags": {"addr:housenumber": "25", "addr:street": "Marine Parade Road", "air_conditioning": "yes", "amenity": "cafe", "check_date": "2023-05-07", "cuisine": "bakery", "diet:vegetarian": "yes", "level": "0", "name": "Yugoslavia Bakery & Cafe", "outdoor_seating": "no", "payment:credit_cards": "yes", "payment:debit_cards": "yes", "payment:mastercard": "yes", "payment:visa": "yes", "shop": "bakery", "takeaway": "yes", "wheelchair": "yes"}}, {"type": "node", "id": 9710736632, "lat": 1.3039154, "lon": 103.9028381, "tags": {"addr:housenumber": "25", "addr:street": "Marine Parade Road", "air_conditioning": "yes", "amenity": "cafe", "check_date": "2023-05-07", "cuisine": "coffee_shop;bakery", "level": "1", "name": "Bread & Hearth", "opening_hours": "08:30-18:30", "outdoor_seating": "no", "wheelchair": "yes"}}, {"type": "node", "id": 9710784632, "lat": 1.3048951, "lon": 103.9046618, "tags": {"amenity": "cafe", "level": "0", "name": "Camellia Tea Bar"}}, {"type": "node", "id": 9710784636, "lat": 1.3047286, "lon": 103.9046021, "tags": {"amenity": "cafe", "level": "0", "name": "Killiney"}}, {"type": "node", "id": 9710784637, "lat": 1.3048281, "lon": 103.9045937, "tags": {"amenity": "cafe", "level": "0", "name": "2Six"}}, {"type": "node", "id": 9710784641, "lat": 1.3051395, "lon": 103.9043997, "tags": {"amenity": "cafe", "brand": "Starbucks", "cuisine": "coffee_shop", "name": "Starbucks", "official_name": "Starbucks Coffee", "takeaway": "yes"}}, {"type": "node", "id": 9710801517, "lat": 1.3049455, "lon": 103.904044, "tags": {"addr:unit": "01", "amenity": "cafe", "level": "0", "name": "Ambling Turtle"}}, {"type": "node", "id": 9710870160, "lat": 1.3050652, "lon": 103.9051013, "tags": {"amenity": "cafe", "cuisine": "ice_cream", "level": "1", "name": "Kind Kones"}}, {"type": "node", "id": 9710870161, "lat": 1.3050423, "lon": 103.9050136, "tags": {"amenity": "cafe", "level": "0", "name": "Huggs Collective"}}, {"type": "node", "id": 9710870162, "lat": 1.3052316, "lon": 103.9051228, "tags": {"addr:unit": "49", "amenity": "cafe", "level": "-1", "name": "Fun Toast"}}, {"type": "node", "id": 9710870169, "lat": 1.305106, "lon": 103.9049711, "tags": {"addr:city": "Singapore", "addr:country": "SG", "addr:housenumber": "112", "addr:postcode": "428802", "addr:street": "East Coast Road", "addr:unit": "#01-21", "amenity": "cafe", "level": "0", "name": "Totoi Toast"}}, {"type": "node", "id": 9710870177, "lat": 1.30537, "lon": 103.9050524, "tags": {"amenity": "cafe", "cuisine": "bubble_tea", "level": "-1", "name": "Tea Pulse", "takeaway": "only"}}, {"type": "node", "id": 9710870193, "lat": 1.3052629, "lon": 103.9049531, "tags": {"amenity": "cafe", "brand": "Gong Cha", "brand:zh": "\u8ca2\u8336", "cuisine": "bubble_tea", "int_name": "Gong Cha", "level": "-1", "name": "Gong Cha", "name:zh": "\u8ca2\u8336", "takeaway": "only"}}, {"type": "node", "id": 9729557374, "lat": 1.3136478, "lon": 103.9882648, "tags": {"amenity": "cafe"}}, {"type": "node", "id": 9979023087, "lat": 1.3087996, "lon": 103.9121413, "tags": {"addr:city": "Singapore", "addr:housenumber": "400", "addr:postcode": "428996", "addr:street": "East Coast Road", "amenity": "cafe", "name": "Penny University"}}, {"type": "node", "id": 10061011454, "lat": 1.3122109, "lon": 103.9243726, "tags": {"amenity": "cafe", "cuisine": "coffee_shop", "name": "La Saigon Viet Specialty Coffee", "pet": "no", "smoking": "no"}}, {"type": "node", "id": 10242087193, "lat": 1.3050379, "lon": 103.9042519, "tags": {"amenity": "cafe", "check_date": "2022-12-03", "name": "Baba Chews"}}, {"type": "node", "id": 10243972155, "lat": 1.3046351, "lon": 103.9020445, "tags": {"amenity": "cafe", "name": "The Whole Kitchen", "pet": "no"}}, {"type": "node", "id": 10243977307, "lat": 1.3047017, "lon": 103.9019974, "tags": {"addr:housename": "Odeon Katong", "addr:housenumber": "11", "addr:postcode": "428722", "addr:street": "East Coast Road", "addr:unit": "01-14", "amenity": "cafe", "cuisine": "dessert", "name": "Wan Mei \u7897\u7f8e", "opening_hours": "Mo, We-Su 12:00-22:30", "outdoor_seating": "yes", "payment:paynow": "yes", "pet": "yes"}}, {"type": "node", "id": 10992282621, "lat": 1.3074195, "lon": 103.9073597, "tags": {"addr:housenumber": "218", "addr:postcode": "428916", "addr:street": "East Coast Road", "amenity": "cafe", "check_date": "2023-06-18", "contact:facebook": "https://www.facebook.com/brawnandbrainscoffee", "cuisine": "coffee_shop", "email": "hello@brawnandbrains.sg", "name": "Brawns & Brains", "opening_hours": "Mo-Tu,Th-Fr 07:30-17:30; We off; Sa-Su,PH 07:30-18:00", "outdoor_seating": "no", "website": "https://www.brawnandbrains.sg/"}}, {"type": "node", "id": 11521912783, "lat": 1.3100472, "lon": 103.9020572, "tags": {"addr:housenumber": "283", "addr:street": "Joo Chiat Road", "amenity": "cafe", "check_date": "2024-04-21", "level": "0", "name": "Cafe Natsu"}}, {"type": "node", "id": 12093257639, "lat": 1.3123704, "lon": 103.9232547, "tags": {"amenity": "cafe", "check_date": "2024-08-04", "name": "\u0112N Seeds Bowl Of Gratitude"}}, {"type": "node", "id": 12093257640, "lat": 1.3123785, "lon": 103.9255435, "tags": {"addr:housenumber": "6", "addr:street": "Jalan Jamal", "air_conditioning": "yes", "amenity": "cafe", "check_date": "2024-08-04", "cuisine": "coffee_shop;brunch", "name": "Five Oars Coffee Roasters", "outdoor_seating": "yes", "payment:cash": "no", "payment:credit_cards": "yes", "payment:debit_cards": "yes", "wheelchair": "limited"}}, {"type": "node", "id": 12093257643, "lat": 1.3130633, "lon": 103.9261382, "tags": {"amenity": "cafe", "check_date": "2024-08-04", "name": "Royals Cafe"}}, {"type": "way", "id": 745530738, "nodes": [6978635810, 6982511412, 6982511409, 6978637995, 6978637804, 6978637806, 6978637996, 6978635811, 6978638185, 6978635810], "tags": {"addr:city": "Singapore", "addr:housenumber": "#01-14B", "addr:postcode": "449269", "addr:street": "80 Marine Parade Rd, Parkway Parade", "amenity": "cafe", "indoor": "room", "level": "0", "name": "Ya Kun Family Cafe", "room": "cafe"}}, {"type": "way", "id": 745530746, "nodes": [6976085385, 6976085485, 6978637893, 6978635812, 6978637997, 6978635813, 6978635814, 6976085386, 6978635815, 6976085385], "tags": {"amenity": "cafe", "indoor": "room", "level": "0", "name": "PappaRich", "room": "cafe"}}, {"type": "way", "id": 745530768, "nodes": [6978637829, 6978635836, 6978635833, 6978637828, 6976045893, 6978638004, 6978637829], "tags": {"addr:city": "Singapore", "addr:housenumber": "80", "addr:postcode": "449269", "addr:street": "Marine Parade Road #01-10A/B Parkway Parade", "amenity": "cafe", "brand": "Starbucks", "brand:wikidata": "Q37158", "brand:wikipedia": "en:Starbucks", "cuisine": "coffee_shop", "indoor": "room", "level": "0", "name": "Starbucks", "official_name": "Starbucks Coffee", "room": "cafe", "takeaway": "yes"}}, {"type": "way", "id": 746049585, "nodes": [6982001798, 6976343099, 6976336796, 6976343505, 6976343291, 6976343290, 6976343388, 6976343504, 6976336795, 6976343197, 6982001908, 6982001909, 6982001798], "tags": {"amenity": "cafe", "indoor": "room", "level": "1", "name": "Fun Toast", "room": "cafe"}}, {"type": "way", "id": 746052349, "nodes": [6982012830, 6982012829, 6982021623, 6982021624, 6982021625, 6982024688, 6982024599, 6982012830], "tags": {"amenity": "cafe", "brand": "Sharetea", "brand:wikidata": "Q64827032", "cuisine": "bubble_tea", "indoor": "room", "level": "-1", "name": "Sharetea", "name:en": "Sharetea", "name:zh": "\u6b47\u8173\u4ead", "room": "shop", "takeaway": "yes"}}, {"type": "way", "id": 746052362, "nodes": [6982024609, 6982021588, 6982024608, 6982024607, 6982021658, 6982021657, 6982024610, 6982024609], "tags": {"amenity": "cafe", "indoor": "room", "level": "-1", "name": "Kraftwich by Swissbake", "room": "cafe"}}, {"type": "way", "id": 746110477, "nodes": [6982433011, 6982021662, 6982024614, 6982432908, 6982432909, 6982432910, 6982432907, 6982432906, 6982433011], "tags": {"amenity": "cafe", "brand": "The Coffee Bean & Tea Leaf", "brand:wikidata": "Q1141384", "brand:wikipedia": "en:The Coffee Bean & Tea Leaf", "cuisine": "coffee_shop", "indoor": "room", "level": "-1", "name": "The Coffee Bean & Tea Leaf", "room": "cafe", "takeaway": "yes"}}]}